1 28654U 05018A   22028.39719907  .00000110  00000-0  83618-4 0  9990
2 28654  98.9674  98.8506 0014241  11.3162 348.8327 14.12681501860202